{
  "type": "FeatureCollection",
  "features": [
    {
      "type": "Feature",
      "properties": {
        "norad_id": 34641,
        "name": "COSMOS 2251 DEB",
        "group": "cosmos-2251-debris",
        "lat": -28.285967120703255,
        "lon": 50.733295004023525,
        "alt_km": 710.8152917635744,
        "timestamp": "2025-12-24T05:51:20.004308+00:00",
        "meta_object_name": "COSMOS 2251 DEB",
        "meta_object_id": "1993-036XN",
        "meta_epoch": "2025-12-23T22:32:56.853024",
        "meta_mean_motion": 14.52074303,
        "meta_eccentricity": 0.00190708,
        "meta_inclination": 73.8374,
        "meta_ra_of_asc_node": 60.292,
        "meta_arg_of_pericenter": 332.9719,
        "meta_mean_anomaly": 206.7936,
        "meta_ephemeris_type": 0,
        "meta_classification_type": "U",
        "meta_norad_cat_id": 34641,
        "meta_element_set_no": 999,
        "meta_rev_at_epoch": 88418,
        "meta_bstar": 0.00077881091,
        "meta_mean_motion_dot": 3.13e-05,
        "meta_mean_motion_ddot": 0,
        "tle_line1": "1 34641U 93036XN  25357.93954691  .00003130  00000+0  77881-3 0  9997",
        "tle_line2": "2 34641  73.8374  60.2920 0019070 332.9719 206.7936 14.52074303884183"
      },
      "geometry": {
        "type": "Point",
        "coordinates": [
          50.733295004023525,
          -28.285967120703255
        ]
      }
    },
    {
      "type": "Feature",
      "properties": {
        "norad_id": 34642,
        "name": "COSMOS 2251 DEB",
        "group": "cosmos-2251-debris",
        "lat": 16.34072958911915,
        "lon": -35.30104512011868,
        "alt_km": 969.9865403382946,
        "timestamp": "2025-12-24T05:51:20.004318+00:00",
        "meta_object_name": "COSMOS 2251 DEB",
        "meta_object_id": "1993-036XP",
        "meta_epoch": "2025-12-22T21:18:46.794240",
        "meta_mean_motion": 13.99000221,
        "meta_eccentricity": 0.02065395,
        "meta_inclination": 74.0044,
        "meta_ra_of_asc_node": 322.2225,
        "meta_arg_of_pericenter": 139.6532,
        "meta_mean_anomaly": 253.1213,
        "meta_ephemeris_type": 0,
        "meta_classification_type": "U",
        "meta_norad_cat_id": 34642,
        "meta_element_set_no": 999,
        "meta_rev_at_epoch": 85435,
        "meta_bstar": 0.00078596345,
        "meta_mean_motion_dot": 1.341e-05,
        "meta_mean_motion_ddot": 0,
        "tle_line1": "1 34642U 93036XP  25356.88804160  .00001341  00000+0  78596-3 0  9992",
        "tle_line2": "2 34642  74.0044 322.2225 0206539 139.6532 253.1213 13.99000221854351"
      },
      "geometry": {
        "type": "Point",
        "coordinates": [
          -35.30104512011868,
          16.34072958911915
        ]
      }
    },
    {
      "type": "Feature",
      "properties": {
        "norad_id": 34671,
        "name": "COSMOS 2251 DEB",
        "group": "cosmos-2251-debris",
        "lat": -24.56599979693303,
        "lon": 104.56238580836552,
        "alt_km": 681.3660744023164,
        "timestamp": "2025-12-24T05:51:20.004328+00:00",
        "meta_object_name": "COSMOS 2251 DEB",
        "meta_object_id": "1993-036XR",
        "meta_epoch": "2025-12-23T01:02:34.173312",
        "meta_mean_motion": 14.67102739,
        "meta_eccentricity": 0.00106686,
        "meta_inclination": 74.0274,
        "meta_ra_of_asc_node": 114.4027,
        "meta_arg_of_pericenter": 195.4789,
        "meta_mean_anomaly": 280.8159,
        "meta_ephemeris_type": 0,
        "meta_classification_type": "U",
        "meta_norad_cat_id": 34671,
        "meta_element_set_no": 999,
        "meta_rev_at_epoch": 88448,
        "meta_bstar": 0.0017957882,
        "meta_mean_motion_dot": 0.0001008,
        "meta_mean_motion_ddot": 0,
        "tle_line1": "1 34671U 93036XR  25357.04345108  .00010080  00000+0  17958-2 0  9999",
        "tle_line2": "2 34671  74.0274 114.4027 0010668 195.4789 280.8159 14.67102739884485"
      },
      "geometry": {
        "type": "Point",
        "coordinates": [
          104.56238580836552,
          -24.56599979693303
        ]
      }
    },
    {
      "type": "Feature",
      "properties": {
        "norad_id": 34672,
        "name": "COSMOS 2251 DEB",
        "group": "cosmos-2251-debris",
        "lat": -31.71483976045809,
        "lon": -85.73669372931782,
        "alt_km": 760.5371896840716,
        "timestamp": "2025-12-24T05:51:20.004338+00:00",
        "meta_object_name": "COSMOS 2251 DEB",
        "meta_object_id": "1993-036XS",
        "meta_epoch": "2025-12-23T01:39:52.431840",
        "meta_mean_motion": 14.36424251,
        "meta_eccentricity": 0.00243004,
        "meta_inclination": 74.0343,
        "meta_ra_of_asc_node": 286.6106,
        "meta_arg_of_pericenter": 356.389,
        "meta_mean_anomaly": 18.9966,
        "meta_ephemeris_type": 0,
        "meta_classification_type": "U",
        "meta_norad_cat_id": 34672,
        "meta_element_set_no": 999,
        "meta_rev_at_epoch": 65326,
        "meta_bstar": 0.00025150328,
        "meta_mean_motion_dot": 7.13e-06,
        "meta_mean_motion_ddot": 0,
        "tle_line1": "1 34672U 93036XS  25357.06935685  .00000713  00000+0  25150-3 0  9993",
        "tle_line2": "2 34672  74.0343 286.6106 0024300 356.3890  18.9966 14.36424251653260"
      },
      "geometry": {
        "type": "Point",
        "coordinates": [
          -85.73669372931782,
          -31.71483976045809
        ]
      }
    },
    {
      "type": "Feature",
      "properties": {
        "norad_id": 34678,
        "name": "COSMOS 2251 DEB",
        "group": "cosmos-2251-debris",
        "lat": -62.31145252519667,
        "lon": -162.16893236522588,
        "alt_km": 812.5642163427174,
        "timestamp": "2025-12-24T05:51:20.004348+00:00",
        "meta_object_name": "COSMOS 2251 DEB",
        "meta_object_id": "1993-036XY",
        "meta_epoch": "2025-12-23T18:55:51.698784",
        "meta_mean_motion": 14.30066893,
        "meta_eccentricity": 0.00247659,
        "meta_inclination": 74.0377,
        "meta_ra_of_asc_node": 345.6043,
        "meta_arg_of_pericenter": 31.3096,
        "meta_mean_anomaly": 33.4063,
        "meta_ephemeris_type": 0,
        "meta_classification_type": "U",
        "meta_norad_cat_id": 34678,
        "meta_element_set_no": 999,
        "meta_rev_at_epoch": 87537,
        "meta_bstar": 2.975852e-05,
        "meta_mean_motion_dot": 5.1e-07,
        "meta_mean_motion_ddot": 0,
        "tle_line1": "1 34678U 93036XY  25357.78879281  .00000051  00000+0  29759-4 0  9992",
        "tle_line2": "2 34678  74.0377 345.6043 0024765  31.3096  33.4063 14.30066893875378"
      },
      "geometry": {
        "type": "Point",
        "coordinates": [
          -162.16893236522588,
          -62.31145252519667
        ]
      }
    },
    {
      "type": "Feature",
      "properties": {
        "norad_id": 34680,
        "name": "COSMOS 2251 DEB",
        "group": "cosmos-2251-debris",
        "lat": -3.9469215257441017,
        "lon": 106.76116855712397,
        "alt_km": 697.6722063919469,
        "timestamp": "2025-12-24T05:51:20.004358+00:00",
        "meta_object_name": "COSMOS 2251 DEB",
        "meta_object_id": "1993-036YA",
        "meta_epoch": "2025-12-23T15:21:33.153120",
        "meta_mean_motion": 14.60731514,
        "meta_eccentricity": 0.00063275,
        "meta_inclination": 74.0441,
        "meta_ra_of_asc_node": 109.0451,
        "meta_arg_of_pericenter": 210.5791,
        "meta_mean_anomaly": 210.4022,
        "meta_ephemeris_type": 0,
        "meta_classification_type": "U",
        "meta_norad_cat_id": 34680,
        "meta_element_set_no": 999,
        "meta_rev_at_epoch": 88487,
        "meta_bstar": 0.0011410093,
        "meta_mean_motion_dot": 5.54e-05,
        "meta_mean_motion_ddot": 0,
        "tle_line1": "1 34680U 93036YA  25357.63996705  .00005540  00000+0  11410-2 0  9991",
        "tle_line2": "2 34680  74.0441 109.0451 0006327 210.5791 210.4022 14.60731514884874"
      },
      "geometry": {
        "type": "Point",
        "coordinates": [
          106.76116855712397,
          -3.9469215257441017
        ]
      }
    },
    {
      "type": "Feature",
      "properties": {
        "norad_id": 34681,
        "name": "COSMOS 2251 DEB",
        "group": "cosmos-2251-debris",
        "lat": 72.36841333583075,
        "lon": -28.3049644172867,
        "alt_km": 619.9586650026304,
        "timestamp": "2025-12-24T05:51:20.004368+00:00",
        "meta_object_name": "COSMOS 2251 DEB",
        "meta_object_id": "1993-036YB",
        "meta_epoch": "2025-12-23T05:54:51.560640",
        "meta_mean_motion": 14.83443446,
        "meta_eccentricity": 0.00257018,
        "meta_inclination": 74.0625,
        "meta_ra_of_asc_node": 269.6261,
        "meta_arg_of_pericenter": 324.9574,
        "meta_mean_anomaly": 192.0619,
        "meta_ephemeris_type": 0,
        "meta_classification_type": "U",
        "meta_norad_cat_id": 34681,
        "meta_element_set_no": 999,
        "meta_rev_at_epoch": 89426,
        "meta_bstar": 0.0013897227,
        "meta_mean_motion_dot": 0.00011467,
        "meta_mean_motion_ddot": 0,
        "tle_line1": "1 34681U 93036YB  25357.24643010  .00011467  00000+0  13897-2 0  9993",
        "tle_line2": "2 34681  74.0625 269.6261 0025701 324.9574 192.0619 14.83443446894267"
      },
      "geometry": {
        "type": "Point",
        "coordinates": [
          -28.3049644172867,
          72.36841333583075
        ]
      }
    }
  ]
}